[{"OBJECT_NAME":"IRIDIUM 162","OBJECT_ID":"2018-047G","EPOCH":"2026-03-09T16:09:02.112768","MEAN_MOTION":14.43274905,"ECCENTRICITY":0.0002109,"INCLINATION":86.4501,"RA_OF_ASC_NODE":129.9826,"ARG_OF_PERICENTER":95.166,"MEAN_ANOMALY":264.9782,"EPHEMERIS_TYPE":0,"CLASSIFICATION_TYPE":"U","NORAD_CAT_ID":43482,"ELEMENT_SET_NO":999,"REV_AT_EPOCH":41077,"BSTAR":7.0339294e-5,"MEAN_MOTION_DOT":2.57e-6,"MEAN_MOTION_DDOT":0},{"OBJECT_NAME":"FENGYUN 1C DEB","OBJECT_ID":"1999-025CEE","EPOCH":"2026-03-09T02:38:46.977216","MEAN_MOTION":14.41321594,"ECCENTRICITY":0.00127926,"INCLINATION":99.2997,"RA_OF_ASC_NODE":128.8531,"ARG_OF_PERICENTER":194.4025,"MEAN_ANOMALY":165.6798,"EPHEMERIS_TYPE":0,"CLASSIFICATION_TYPE":"U","NORAD_CAT_ID":31731,"ELEMENT_SET_NO":999,"REV_AT_EPOCH":97074,"BSTAR":0.0022080012,"MEAN_MOTION_DOT":7.107e-5,"MEAN_MOTION_DDOT":0}]
